[
    {
        "CCSDS_OMM_VERS": "3.0",
        "COMMENT": "GENERATED VIA SPACE-TRACK.ORG API",
        "CREATION_DATE": "2025-05-04T02:26:54",
        "ORIGINATOR": "18 SPCS",
        "OBJECT_NAME": "BEIDOU 3 IGSO-1",
        "OBJECT_ID": "2019-023A",
        "CENTER_NAME": "EARTH",
        "REF_FRAME": "TEME",
        "TIME_SYSTEM": "UTC",
        "MEAN_ELEMENT_THEORY": "SGP4",
        "EPOCH": "2025-05-03T16:06:51.798240",
        "MEAN_MOTION": "1.00258855",
        "ECCENTRICITY": "0.00207250",
        "INCLINATION": "58.1160",
        "RA_OF_ASC_NODE": "41.8803",
        "ARG_OF_PERICENTER": "226.3848",
        "MEAN_ANOMALY": "313.0425",
        "EPHEMERIS_TYPE": "0",
        "CLASSIFICATION_TYPE": "U",
        "NORAD_CAT_ID": "44204",
        "ELEMENT_SET_NO": "999",
        "REV_AT_EPOCH": "310",
        "BSTAR": "0.00000000000000",
        "MEAN_MOTION_DOT": "-0.00000234",
        "MEAN_MOTION_DDOT": "0.0000000000000",
        "SEMIMAJOR_AXIS": "42168.357",
        "PERIOD": "1436.282",
        "APOAPSIS": "35877.616",
        "PERIAPSIS": "35702.828",
        "OBJECT_TYPE": "PAYLOAD",
        "RCS_SIZE": "LARGE",
        "COUNTRY_CODE": "PRC",
        "LAUNCH_DATE": "2019-04-20",
        "SITE": "XSC",
        "DECAY_DATE": null,
        "FILE": "4718307",
        "GP_ID": "286799852",
        "TLE_LINE0": "0 BEIDOU 3 IGSO-1",
        "TLE_LINE1": "1 44204U 19023A   25123.67143285 -.00000234  00000-0  00000-0 0  9998",
        "TLE_LINE2": "2 44204  58.1160  41.8803 0020725 226.3848 313.0425  1.00258855  3106"
    }
]